start=new Date('2023-03-02T00:00:00.000Z').valueOf();
sats=[{"SITE":"AFETR","ARG_OF_PERICENTER":"338.3907","TIME_SYSTEM":"UTC","MEAN_ANOMALY":"21.6899","RCS_SIZE":"LARGE","COUNTRY_CODE":"US","PERIOD":"94.287","MEAN_ELEMENT_THEORY":"SGP4","DECAY_DATE":null,"MEAN_MOTION":"15.27253817","EPHEMERIS_TYPE":"0","OBJECT_ID":"2020-006K","CLASSIFICATION_TYPE":"U","NORAD_CAT_ID":"45053","RA_OF_ASC_NODE":"172.4331","REF_FRAME":"TEME","REV_AT_EPOCH":"17042","MEAN_MOTION_DOT":"0.00071365","OBJECT_NAME":"STARLINK-1155","ELEMENT_SET_NO":"999","PERIAPSIS":"480.926","BSTAR":"0.00262400000000","LAUNCH_DATE":"2020-01-29","OBJECT_TYPE":"PAYLOAD","MEAN_MOTION_DDOT":"0.0000000000000","INCLINATION":"52.9899","GP_ID":"227316728","TLE_LINE1":"1 45053U 20006K   23060.55271644  .00071365  00000-0  26240-2 0  9998","APOAPSIS":"487.130","TLE_LINE2":"2 45053  52.9899 172.4331 0004520 338.3907  21.6899 15.27253817170426","ECCENTRICITY":"0.00045200","EPOCH":"2023-03-01T13:15:54.700416","CENTER_NAME":"EARTH","FILE":"3848834","SEMIMAJOR_AXIS":"6862.163"},{"REF_FRAME":"TEME","NORAD_CAT_ID":"45054","RA_OF_ASC_NODE":"203.1247","OBJECT_ID":"2020-006L","CLASSIFICATION_TYPE":"U","REV_AT_EPOCH":"17004","MEAN_MOTION_DOT":"0.00005015","ELEMENT_SET_NO":"999","OBJECT_NAME":"STARLINK-1156","MEAN_ELEMENT_THEORY":"SGP4","MEAN_MOTION":"15.06379640","DECAY_DATE":null,"EPHEMERIS_TYPE":"0","COUNTRY_CODE":"US","PERIOD":"95.593","ARG_OF_PERICENTER":"82.4433","SITE":"AFETR","TIME_SYSTEM":"UTC","RCS_SIZE":"LARGE","MEAN_ANOMALY":"277.6732","EPOCH":"2023-03-01T14:05:48.964128","FILE":"3848834","CENTER_NAME":"EARTH","SEMIMAJOR_AXIS":"6925.411","GP_ID":"227315481","ECCENTRICITY":"0.00015520","TLE_LINE2":"2 45054  53.0517 203.1247 0001552  82.4433 277.6732 15.06379640170044","APOAPSIS":"548.351","TLE_LINE1":"1 45054U 20006L   23060.58737227  .00005015  00000-0  35551-3 0  9991","MEAN_MOTION_DDOT":"0.0000000000000","INCLINATION":"53.0517","BSTAR":"0.00035551000000","PERIAPSIS":"546.201","OBJECT_TYPE":"PAYLOAD","LAUNCH_DATE":"2020-01-29"},{"ARG_OF_PERICENTER":"80.0524","SITE":"AFETR","MEAN_ANOMALY":"280.0597","RCS_SIZE":"LARGE","TIME_SYSTEM":"UTC","PERIOD":"95.593","COUNTRY_CODE":"US","MEAN_MOTION":"15.06389404","DECAY_DATE":null,"MEAN_ELEMENT_THEORY":"SGP4","EPHEMERIS_TYPE":"0","REV_AT_EPOCH":"17006","OBJECT_ID":"2020-006P","CLASSIFICATION_TYPE":"U","REF_FRAME":"TEME","NORAD_CAT_ID":"45057","RA_OF_ASC_NODE":"202.7632","OBJECT_NAME":"STARLINK-1159","ELEMENT_SET_NO":"999","MEAN_MOTION_DOT":"-0.00000409","LAUNCH_DATE":"2020-01-29","OBJECT_TYPE":"PAYLOAD","PERIAPSIS":"546.438","BSTAR":"-0.00000857110000","MEAN_MOTION_DDOT":"0.0000000000000","INCLINATION":"53.0527","GP_ID":"227315731","TLE_LINE1":"1 45057U 20006P   23060.66846387 -.00000409  00000-0 -85711-5 0  9990","TLE_LINE2":"2 45057  53.0527 202.7632 0001167  80.0524 280.0597 15.06389404170066","APOAPSIS":"548.054","ECCENTRICITY":"0.00011670","CENTER_NAME":"EARTH","FILE":"3848834","EPOCH":"2023-03-01T16:02:35.278368","SEMIMAJOR_AXIS":"6925.381"},{"MEAN_MOTION_DDOT":"0.0000000000000","INCLINATION":"53.0510","BSTAR":"0.00151330000000","PERIAPSIS":"546.366","OBJECT_TYPE":"PAYLOAD","LAUNCH_DATE":"2020-01-29","EPOCH":"2023-03-01T20:38:35.619936","FILE":"3848834","CENTER_NAME":"EARTH","SEMIMAJOR_AXIS":"6925.375","GP_ID":"227316481","TLE_LINE2":"2 45058  53.0510 201.9022 0001263  77.4035 282.7095 15.06391223170094","APOAPSIS":"548.115","ECCENTRICITY":"0.00012630","TLE_LINE1":"1 45058U 20006Q   23060.86013449  .00022326  00000-0  15133-2 0  9996","COUNTRY_CODE":"US","PERIOD":"95.593","ARG_OF_PERICENTER":"77.4035","SITE":"AFETR","TIME_SYSTEM":"UTC","RCS_SIZE":"LARGE","MEAN_ANOMALY":"282.7095","NORAD_CAT_ID":"45058","RA_OF_ASC_NODE":"201.9022","REF_FRAME":"TEME","OBJECT_ID":"2020-006Q","CLASSIFICATION_TYPE":"U","REV_AT_EPOCH":"17009","MEAN_MOTION_DOT":"0.00022326","ELEMENT_SET_NO":"999","OBJECT_NAME":"STARLINK-1162","MEAN_ELEMENT_THEORY":"SGP4","DECAY_DATE":null,"MEAN_MOTION":"15.06391223","EPHEMERIS_TYPE":"0"},{"ARG_OF_PERICENTER":"41.4198","SITE":"AFETR","TIME_SYSTEM":"UTC","MEAN_ANOMALY":"318.6877","RCS_SIZE":"LARGE","COUNTRY_CODE":"US","PERIOD":"95.593","MEAN_ELEMENT_THEORY":"SGP4","MEAN_MOTION":"15.06391289","DECAY_DATE":null,"EPHEMERIS_TYPE":"0","CLASSIFICATION_TYPE":"U","OBJECT_ID":"2020-006R","REF_FRAME":"TEME","RA_OF_ASC_NODE":"202.6948","NORAD_CAT_ID":"45059","REV_AT_EPOCH":"17006","MEAN_MOTION_DOT":"0.00001119","OBJECT_NAME":"STARLINK-1165","ELEMENT_SET_NO":"999","PERIAPSIS":"546.451","BSTAR":"0.00009403300000","LAUNCH_DATE":"2020-01-29","OBJECT_TYPE":"PAYLOAD","MEAN_MOTION_DDOT":"0.0000000000000","INCLINATION":"53.0513","GP_ID":"227316230","TLE_LINE1":"1 45059U 20006R   23060.68320909  .00001119  00000-0  94033-4 0  9994","TLE_LINE2":"2 45059  53.0513 202.6948 0001139  41.4198 318.6877 15.06391289170062","ECCENTRICITY":"0.00011390","APOAPSIS":"548.029","EPOCH":"2023-03-01T16:23:49.265376","CENTER_NAME":"EARTH","FILE":"3848834","SEMIMAJOR_AXIS":"6925.375"},{"EPOCH":"2023-03-01T16:18:31.401504","FILE":"3848834","CENTER_NAME":"EARTH","SEMIMAJOR_AXIS":"6925.413","GP_ID":"227314983","TLE_LINE2":"2 45060  53.0516 202.7127 0001347 101.8547 258.2593 15.06378936170065","APOAPSIS":"548.211","ECCENTRICITY":"0.00013470","TLE_LINE1":"1 45060U 20006S   23060.67953011 -.00002001  00000-0 -11552-3 0  9998","MEAN_MOTION_DDOT":"0.0000000000000","INCLINATION":"53.0516","BSTAR":"-0.00011552000000","PERIAPSIS":"546.345","OBJECT_TYPE":"PAYLOAD","LAUNCH_DATE":"2020-01-29","RA_OF_ASC_NODE":"202.7127","NORAD_CAT_ID":"45060","REF_FRAME":"TEME","OBJECT_ID":"2020-006S","CLASSIFICATION_TYPE":"U","REV_AT_EPOCH":"17006","MEAN_MOTION_DOT":"-0.00002001","ELEMENT_SET_NO":"999","OBJECT_NAME":"STARLINK-1166","MEAN_ELEMENT_THEORY":"SGP4","MEAN_MOTION":"15.06378936","DECAY_DATE":null,"EPHEMERIS_TYPE":"0","COUNTRY_CODE":"US","PERIOD":"95.593","SITE":"AFETR","ARG_OF_PERICENTER":"101.8547","TIME_SYSTEM":"UTC","RCS_SIZE":"LARGE","MEAN_ANOMALY":"258.2593"},{"GP_ID":"227315232","TLE_LINE2":"2 45061  53.0550 203.2684 0001192  96.7374 263.3751 15.06392267170040","APOAPSIS":"548.063","ECCENTRICITY":"0.00011920","TLE_LINE1":"1 45061U 20006T   23060.55419638 -.00001678  00000-0 -93815-4 0  9990","EPOCH":"2023-03-01T13:18:02.567232","FILE":"3848834","CENTER_NAME":"EARTH","SEMIMAJOR_AXIS":"6925.372","BSTAR":"-0.00009381500000","PERIAPSIS":"546.412","OBJECT_TYPE":"PAYLOAD","LAUNCH_DATE":"2020-01-29","MEAN_MOTION_DDOT":"0.0000000000000","INCLINATION":"53.0550","MEAN_ELEMENT_THEORY":"SGP4","MEAN_MOTION":"15.06392267","DECAY_DATE":null,"EPHEMERIS_TYPE":"0","REF_FRAME":"TEME","RA_OF_ASC_NODE":"203.2684","NORAD_CAT_ID":"45061","CLASSIFICATION_TYPE":"U","OBJECT_ID":"2020-006T","REV_AT_EPOCH":"17004","MEAN_MOTION_DOT":"-0.00001678","ELEMENT_SET_NO":"999","OBJECT_NAME":"STARLINK-1169","ARG_OF_PERICENTER":"96.7374","SITE":"AFETR","TIME_SYSTEM":"UTC","RCS_SIZE":"LARGE","MEAN_ANOMALY":"263.3751","COUNTRY_CODE":"US","PERIOD":"95.593"},{"TLE_LINE1":"1 45062U 20006U   23060.87119215  .00021204  00000-0  14379-2 0  9995","TLE_LINE2":"2 45062  53.0515 201.8523 0001646  50.9339 309.1796 15.06405677170098","APOAPSIS":"548.336","ECCENTRICITY":"0.00016460","GP_ID":"227315983","SEMIMAJOR_AXIS":"6925.331","CENTER_NAME":"EARTH","FILE":"3848834","EPOCH":"2023-03-01T20:54:31.001760","LAUNCH_DATE":"2020-01-29","OBJECT_TYPE":"PAYLOAD","PERIAPSIS":"546.056","BSTAR":"0.00143790000000","INCLINATION":"53.0515","MEAN_MOTION_DDOT":"0.0000000000000","EPHEMERIS_TYPE":"0","MEAN_MOTION":"15.06405677","DECAY_DATE":null,"MEAN_ELEMENT_THEORY":"SGP4","OBJECT_NAME":"STARLINK-1171","ELEMENT_SET_NO":"999","MEAN_MOTION_DOT":"0.00021204","REV_AT_EPOCH":"17009","OBJECT_ID":"2020-006U","CLASSIFICATION_TYPE":"U","RA_OF_ASC_NODE":"201.8523","NORAD_CAT_ID":"45062","REF_FRAME":"TEME","MEAN_ANOMALY":"309.1796","RCS_SIZE":"LARGE","TIME_SYSTEM":"UTC","ARG_OF_PERICENTER":"50.9339","SITE":"AFETR","PERIOD":"95.592","COUNTRY_CODE":"US"},{"INCLINATION":"53.0524","MEAN_MOTION_DDOT":"0.0000000000000","PERIAPSIS":"546.350","BSTAR":"0.00192970000000","LAUNCH_DATE":"2020-01-29","OBJECT_TYPE":"PAYLOAD","SEMIMAJOR_AXIS":"6925.375","EPOCH":"2023-03-01T19:37:33.931776","CENTER_NAME":"EARTH","FILE":"3848834","TLE_LINE1":"1 45064U 20006W   23060.81775384  .00028572  00000-0  19297-2 0  9995","TLE_LINE2":"2 45064  53.0524 182.0924 0001285 104.0950 256.0182 15.06391337170360","ECCENTRICITY":"0.00012850","APOAPSIS":"548.130","GP_ID":"227316729","COUNTRY_CODE":"US","PERIOD":"95.593","TIME_SYSTEM":"UTC","MEAN_ANOMALY":"256.0182","RCS_SIZE":"LARGE","ARG_OF_PERICENTER":"104.0950","SITE":"AFETR","MEAN_MOTION_DOT":"0.00028572","OBJECT_NAME":"STARLINK-1133","ELEMENT_SET_NO":"999","OBJECT_ID":"2020-006W","CLASSIFICATION_TYPE":"U","NORAD_CAT_ID":"45064","RA_OF_ASC_NODE":"182.0924","REF_FRAME":"TEME","REV_AT_EPOCH":"17036","EPHEMERIS_TYPE":"0","MEAN_ELEMENT_THEORY":"SGP4","DECAY_DATE":null,"MEAN_MOTION":"15.06391337"},{"COUNTRY_CODE":"US","PERIOD":"95.592","ARG_OF_PERICENTER":"65.8339","SITE":"AFETR","TIME_SYSTEM":"UTC","MEAN_ANOMALY":"294.2788","RCS_SIZE":"LARGE","CLASSIFICATION_TYPE":"U","OBJECT_ID":"2020-006X","REF_FRAME":"TEME","RA_OF_ASC_NODE":"182.3736","NORAD_CAT_ID":"45065","REV_AT_EPOCH":"17035","MEAN_MOTION_DOT":"0.00023649","OBJECT_NAME":"STARLINK-1139","ELEMENT_SET_NO":"999","MEAN_ELEMENT_THEORY":"SGP4","MEAN_MOTION":"15.06396269","DECAY_DATE":null,"EPHEMERIS_TYPE":"0","MEAN_MOTION_DDOT":"0.0000000000000","INCLINATION":"53.0522","PERIAPSIS":"546.309","BSTAR":"0.00160140000000","LAUNCH_DATE":"2020-01-29","OBJECT_TYPE":"PAYLOAD","EPOCH":"2023-03-01T18:07:19.621344","CENTER_NAME":"EARTH","FILE":"3848834","SEMIMAJOR_AXIS":"6925.360","GP_ID":"227315482","TLE_LINE1":"1 45065U 20006X   23060.75508821  .00023649  00000-0  16014-2 0  9993","TLE_LINE2":"2 45065  53.0522 182.3736 0001322  65.8339 294.2788 15.06396269170354","APOAPSIS":"548.141","ECCENTRICITY":"0.00013220"}];
